start=new Date('2023-02-13T00:00:00.000Z').valueOf();
sats=[{"RCS_SIZE":"LARGE","OBJECT_ID":"2020-001M","MEAN_ELEMENT_THEORY":"SGP4","SITE":"AFETR","MEAN_ANOMALY":"267.7794","ECCENTRICITY":"0.00017110","RA_OF_ASC_NODE":"338.3428","FILE":"3788047","COUNTRY_CODE":"US","OBJECT_NAME":"STARLINK-1112","APOAPSIS":"548.428","TLE_LINE2":"2 44925  53.0536 338.3428 0001711  92.3391 267.7794 15.06390248170903","SEMIMAJOR_AXIS":"6925.378","INCLINATION":"53.0536","GP_ID":"225273739","TIME_SYSTEM":"UTC","MEAN_MOTION":"15.06390248","PERIAPSIS":"546.059","CLASSIFICATION_TYPE":"U","EPHEMERIS_TYPE":"0","ARG_OF_PERICENTER":"92.3391","TLE_LINE1":"1 44925U 20001M   23043.83293695 -.00000380  00000-0 -66235-5 0  9994","EPOCH":"2023-02-12T19:59:25.752480","MEAN_MOTION_DDOT":"0.0000000000000","CENTER_NAME":"EARTH","LAUNCH_DATE":"2020-01-07","NORAD_CAT_ID":"44925","MEAN_MOTION_DOT":"-0.00000380","OBJECT_TYPE":"PAYLOAD","REF_FRAME":"TEME","DECAY_DATE":null,"PERIOD":"95.593","BSTAR":"-0.00000662350000","REV_AT_EPOCH":"17090","ELEMENT_SET_NO":"999"},{"ELEMENT_SET_NO":"999","BSTAR":"0.00012439000000","REV_AT_EPOCH":"17150","PERIOD":"95.592","OBJECT_TYPE":"PAYLOAD","REF_FRAME":"TEME","DECAY_DATE":null,"MEAN_MOTION_DOT":"0.00001572","NORAD_CAT_ID":"44926","LAUNCH_DATE":"2020-01-07","CENTER_NAME":"EARTH","MEAN_MOTION_DDOT":"0.0000000000000","EPOCH":"2023-02-12T05:34:15.957696","TLE_LINE1":"1 44926U 20001N   23043.23212914  .00001572  00000-0  12439-3 0  9991","CLASSIFICATION_TYPE":"U","ARG_OF_PERICENTER":"110.3326","EPHEMERIS_TYPE":"0","MEAN_MOTION":"15.06398690","PERIAPSIS":"546.578","GP_ID":"225232052","TIME_SYSTEM":"UTC","INCLINATION":"53.0461","SEMIMAJOR_AXIS":"6925.353","APOAPSIS":"547.857","TLE_LINE2":"2 44926  53.0461 341.0424 0000923 110.3326 249.7762 15.06398690171502","FILE":"3787692","COUNTRY_CODE":"US","OBJECT_NAME":"STARLINK-1113","RA_OF_ASC_NODE":"341.0424","ECCENTRICITY":"0.00009230","SITE":"AFETR","MEAN_ANOMALY":"249.7762","MEAN_ELEMENT_THEORY":"SGP4","OBJECT_ID":"2020-001N","RCS_SIZE":"LARGE"},{"MEAN_MOTION_DDOT":"0.0000000000000","EPOCH":"2023-02-12T20:15:23.250240","TLE_LINE1":"1 44927U 20001P   23043.84401910 -.00011957  00000-0 -78600-3 0  9997","CLASSIFICATION_TYPE":"U","EPHEMERIS_TYPE":"0","ARG_OF_PERICENTER":"92.2966","MEAN_MOTION":"15.06362751","PERIAPSIS":"546.495","TIME_SYSTEM":"UTC","GP_ID":"225273743","INCLINATION":"53.0558","ELEMENT_SET_NO":"999","BSTAR":"-0.00078600000000","REV_AT_EPOCH":"17091","PERIOD":"95.595","OBJECT_TYPE":"PAYLOAD","REF_FRAME":"TEME","DECAY_DATE":null,"NORAD_CAT_ID":"44927","MEAN_MOTION_DOT":"-0.00011957","CENTER_NAME":"EARTH","LAUNCH_DATE":"2020-01-07","MEAN_ANOMALY":"267.8160","SITE":"AFETR","MEAN_ELEMENT_THEORY":"SGP4","OBJECT_ID":"2020-001P","RCS_SIZE":"LARGE","SEMIMAJOR_AXIS":"6925.463","APOAPSIS":"548.160","TLE_LINE2":"2 44927  53.0558 338.2888 0001202  92.2966 267.8160 15.06362751170917","FILE":"3788047","OBJECT_NAME":"STARLINK-1114","COUNTRY_CODE":"US","RA_OF_ASC_NODE":"338.2888","ECCENTRICITY":"0.00012020"},{"RCS_SIZE":"LARGE","OBJECT_ID":"2020-001Q","MEAN_ELEMENT_THEORY":"SGP4","MEAN_ANOMALY":"291.4728","SITE":"AFETR","RA_OF_ASC_NODE":"339.8008","ECCENTRICITY":"0.00025260","TLE_LINE2":"2 44928  53.0538 339.8008 0002526  68.6530 291.4728 15.06420295170866","APOAPSIS":"548.901","COUNTRY_CODE":"US","OBJECT_NAME":"STARLINK-1119","FILE":"3787692","SEMIMAJOR_AXIS":"6925.286","GP_ID":"225232550","TIME_SYSTEM":"UTC","INCLINATION":"53.0538","ARG_OF_PERICENTER":"68.6530","EPHEMERIS_TYPE":"0","CLASSIFICATION_TYPE":"U","PERIAPSIS":"545.402","MEAN_MOTION":"15.06420295","TLE_LINE1":"1 44928U 20001Q   23043.50856217  .00015309  00000-0  10438-2 0  9992","MEAN_MOTION_DDOT":"0.0000000000000","EPOCH":"2023-02-12T12:12:19.771488","NORAD_CAT_ID":"44928","MEAN_MOTION_DOT":"0.00015309","LAUNCH_DATE":"2020-01-07","CENTER_NAME":"EARTH","DECAY_DATE":null,"REF_FRAME":"TEME","OBJECT_TYPE":"PAYLOAD","REV_AT_EPOCH":"17086","BSTAR":"0.00104380000000","PERIOD":"95.591","ELEMENT_SET_NO":"999"},{"REV_AT_EPOCH":"17090","BSTAR":"0.00089953000000","PERIOD":"95.593","ELEMENT_SET_NO":"999","NORAD_CAT_ID":"44929","MEAN_MOTION_DOT":"0.00013140","LAUNCH_DATE":"2020-01-07","CENTER_NAME":"EARTH","DECAY_DATE":null,"REF_FRAME":"TEME","OBJECT_TYPE":"PAYLOAD","TLE_LINE1":"1 44929U 20001R   23043.82555585  .00013140  00000-0  89953-3 0  9992","MEAN_MOTION_DDOT":"0.0000000000000","EPOCH":"2023-02-12T19:48:48.025440","GP_ID":"225273962","TIME_SYSTEM":"UTC","INCLINATION":"53.0536","EPHEMERIS_TYPE":"0","ARG_OF_PERICENTER":"96.7376","CLASSIFICATION_TYPE":"U","PERIAPSIS":"545.964","MEAN_MOTION":"15.06393815","TLE_LINE2":"2 44929  53.0536 338.3784 0001832  96.7376 263.3822 15.06393815170904","APOAPSIS":"548.501","COUNTRY_CODE":"US","OBJECT_NAME":"STARLINK-1121","FILE":"3788048","SEMIMAJOR_AXIS":"6925.368","RA_OF_ASC_NODE":"338.3784","ECCENTRICITY":"0.00018320","MEAN_ELEMENT_THEORY":"SGP4","MEAN_ANOMALY":"263.3822","SITE":"AFETR","RCS_SIZE":"LARGE","OBJECT_ID":"2020-001R"},{"RA_OF_ASC_NODE":"339.7206","ECCENTRICITY":"0.00006900","SEMIMAJOR_AXIS":"6925.342","APOAPSIS":"547.685","TLE_LINE2":"2 44930  53.0523 339.7206 0000690 104.5641 255.5425 15.06402211170868","FILE":"3787692","COUNTRY_CODE":"US","OBJECT_NAME":"STARLINK-1123","OBJECT_ID":"2020-001S","RCS_SIZE":"LARGE","SITE":"AFETR","MEAN_ANOMALY":"255.5425","MEAN_ELEMENT_THEORY":"SGP4","OBJECT_TYPE":"PAYLOAD","REF_FRAME":"TEME","DECAY_DATE":null,"MEAN_MOTION_DOT":"0.00011241","NORAD_CAT_ID":"44930","LAUNCH_DATE":"2020-01-07","CENTER_NAME":"EARTH","ELEMENT_SET_NO":"999","BSTAR":"0.00077225000000","REV_AT_EPOCH":"17086","PERIOD":"95.592","CLASSIFICATION_TYPE":"U","ARG_OF_PERICENTER":"104.5641","EPHEMERIS_TYPE":"0","MEAN_MOTION":"15.06402211","PERIAPSIS":"546.729","TIME_SYSTEM":"UTC","GP_ID":"225231553","INCLINATION":"53.0523","MEAN_MOTION_DDOT":"0.0000000000000","EPOCH":"2023-02-12T12:38:52.597824","TLE_LINE1":"1 44930U 20001S   23043.52699766  .00011241  00000-0  77225-3 0  9990"},{"OBJECT_TYPE":"PAYLOAD","REF_FRAME":"TEME","DECAY_DATE":null,"LAUNCH_DATE":"2020-01-07","CENTER_NAME":"EARTH","NORAD_CAT_ID":"44931","MEAN_MOTION_DOT":"0.00003569","ELEMENT_SET_NO":"999","PERIOD":"95.288","BSTAR":"0.00022730000000","REV_AT_EPOCH":"17178","MEAN_MOTION":"15.11208573","PERIAPSIS":"531.698","CLASSIFICATION_TYPE":"U","EPHEMERIS_TYPE":"0","ARG_OF_PERICENTER":"89.8277","INCLINATION":"53.0550","GP_ID":"225231801","TIME_SYSTEM":"UTC","EPOCH":"2023-02-12T11:27:54.827424","MEAN_MOTION_DDOT":"0.0000000000000","TLE_LINE1":"1 44931U 20001T   23043.47771791  .00003569  00000-0  22730-3 0  9999","ECCENTRICITY":"0.00011830","RA_OF_ASC_NODE":"327.1096","SEMIMAJOR_AXIS":"6910.650","FILE":"3787692","COUNTRY_CODE":"US","OBJECT_NAME":"STARLINK-1128","APOAPSIS":"533.333","TLE_LINE2":"2 44931  53.0550 327.1096 0001183  89.8277 270.2849 15.11208573171782","OBJECT_ID":"2020-001T","RCS_SIZE":"LARGE","SITE":"AFETR","MEAN_ANOMALY":"270.2849","MEAN_ELEMENT_THEORY":"SGP4"},{"TLE_LINE1":"1 44932U 20001U   23043.51594129 -.00003931  00000-0 -24527-3 0  9994","EPOCH":"2023-02-12T12:22:57.327456","MEAN_MOTION_DDOT":"0.0000000000000","INCLINATION":"53.0549","TIME_SYSTEM":"UTC","GP_ID":"225233048","PERIAPSIS":"546.269","MEAN_MOTION":"15.06383317","ARG_OF_PERICENTER":"86.7807","EPHEMERIS_TYPE":"0","CLASSIFICATION_TYPE":"U","PERIOD":"95.593","REV_AT_EPOCH":"17209","BSTAR":"-0.00024527000000","ELEMENT_SET_NO":"999","LAUNCH_DATE":"2020-01-07","CENTER_NAME":"EARTH","NORAD_CAT_ID":"44932","MEAN_MOTION_DOT":"-0.00003931","REF_FRAME":"TEME","DECAY_DATE":null,"OBJECT_TYPE":"PAYLOAD","MEAN_ELEMENT_THEORY":"SGP4","SITE":"AFETR","MEAN_ANOMALY":"273.3347","RCS_SIZE":"LARGE","OBJECT_ID":"2020-001U","COUNTRY_CODE":"US","OBJECT_NAME":"STARLINK-1130","FILE":"3787692","TLE_LINE2":"2 44932  53.0549 339.7697 0001438  86.7807 273.3347 15.06383317172091","APOAPSIS":"548.261","SEMIMAJOR_AXIS":"6925.400","ECCENTRICITY":"0.00014380","RA_OF_ASC_NODE":"339.7697"},{"ECCENTRICITY":"0.00017440","RA_OF_ASC_NODE":"339.6506","SEMIMAJOR_AXIS":"6925.397","FILE":"3787692","OBJECT_NAME":"STARLINK-1144","COUNTRY_CODE":"US","APOAPSIS":"548.470","TLE_LINE2":"2 44933  53.0536 339.6506 0001744  82.7942 277.3245 15.06384207172159","OBJECT_ID":"2020-001V","RCS_SIZE":"LARGE","SITE":"AFETR","MEAN_ANOMALY":"277.3245","MEAN_ELEMENT_THEORY":"SGP4","OBJECT_TYPE":"PAYLOAD","REF_FRAME":"TEME","DECAY_DATE":null,"LAUNCH_DATE":"2020-01-07","CENTER_NAME":"EARTH","NORAD_CAT_ID":"44933","MEAN_MOTION_DOT":"0.00009205","ELEMENT_SET_NO":"999","PERIOD":"95.593","BSTAR":"0.00063630000000","REV_AT_EPOCH":"17215","MEAN_MOTION":"15.06384207","PERIAPSIS":"546.054","CLASSIFICATION_TYPE":"U","EPHEMERIS_TYPE":"0","ARG_OF_PERICENTER":"82.7942","INCLINATION":"53.0536","GP_ID":"225233288","TIME_SYSTEM":"UTC","EPOCH":"2023-02-12T13:00:06.881184","MEAN_MOTION_DDOT":"0.0000000000000","TLE_LINE1":"1 44933U 20001V   23043.54174631  .00009205  00000-0  63630-3 0  9996"},{"ELEMENT_SET_NO":"999","BSTAR":"-0.00023915000000","REV_AT_EPOCH":"17119","PERIOD":"95.593","OBJECT_TYPE":"PAYLOAD","REF_FRAME":"TEME","DECAY_DATE":null,"MEAN_MOTION_DOT":"-0.00003840","NORAD_CAT_ID":"44934","LAUNCH_DATE":"2020-01-07","CENTER_NAME":"EARTH","MEAN_MOTION_DDOT":"0.0000000000000","EPOCH":"2023-02-12T21:16:23.840256","TLE_LINE1":"1 44934U 20001W   23043.88638704 -.00003840  00000-0 -23915-3 0  9993","CLASSIFICATION_TYPE":"U","ARG_OF_PERICENTER":"82.4626","EPHEMERIS_TYPE":"0","MEAN_MOTION":"15.06387870","PERIAPSIS":"546.444","TIME_SYSTEM":"UTC","GP_ID":"225273637","INCLINATION":"53.0521","SEMIMAJOR_AXIS":"6925.386","APOAPSIS":"548.058","TLE_LINE2":"2 44934  53.0521 318.1079 0001165  82.4626 277.6495 15.06387870171196","FILE":"3788040","COUNTRY_CODE":"US","OBJECT_NAME":"STARLINK-1071","RA_OF_ASC_NODE":"318.1079","ECCENTRICITY":"0.00011650","MEAN_ANOMALY":"277.6495","SITE":"AFETR","MEAN_ELEMENT_THEORY":"SGP4","OBJECT_ID":"2020-001W","RCS_SIZE":"LARGE"}];
